{
  "links" : {
    "next" : "https://api.nasa.gov/neo/rest/v1/feed?start_date=1998-08-23&end_date=1998-08-23&detailed=true&api_key=t0TVs3DtDT2H8Oy2Zy8m2eVrNsAVKAexjcZXUckd",
    "prev" : "https://api.nasa.gov/neo/rest/v1/feed?start_date=1998-08-21&end_date=1998-08-21&detailed=true&api_key=t0TVs3DtDT2H8Oy2Zy8m2eVrNsAVKAexjcZXUckd",
    "self" : "https://api.nasa.gov/neo/rest/v1/feed?start_date=1998-08-22&end_date=1998-08-22&detailed=true&api_key=t0TVs3DtDT2H8Oy2Zy8m2eVrNsAVKAexjcZXUckd"
  },
  "element_count" : 8,
  "near_earth_objects" : {
    "1998-08-22" : [ {
      "links" : {
        "self" : "https://api.nasa.gov/neo/rest/v1/neo/3713320?api_key=t0TVs3DtDT2H8Oy2Zy8m2eVrNsAVKAexjcZXUckd"
      },
      "neo_reference_id" : "3713320",
      "name" : "(2015 FQ)",
      "nasa_jpl_url" : "http://ssd.jpl.nasa.gov/sbdb.cgi?sstr=3713320",
      "absolute_magnitude_h" : 22.3,
      "estimated_diameter" : {
        "kilometers" : {
          "estimated_diameter_min" : 0.0921626549,
          "estimated_diameter_max" : 0.2060819612
        },
        "meters" : {
          "estimated_diameter_min" : 92.1626548503,
          "estimated_diameter_max" : 206.0819612321
        },
        "miles" : {
          "estimated_diameter_min" : 0.057267201,
          "estimated_diameter_max" : 0.1280533543
        },
        "feet" : {
          "estimated_diameter_min" : 302.370924539,
          "estimated_diameter_max" : 676.1219416887
        }
      },
      "is_potentially_hazardous_asteroid" : false,
      "close_approach_data" : [ {
        "close_approach_date" : "1998-08-22",
        "epoch_date_close_approach" : 903769200000,
        "relative_velocity" : {
          "kilometers_per_second" : "14.9226194174",
          "kilometers_per_hour" : "53721.4299027343",
          "miles_per_hour" : "33380.4073748407"
        },
        "miss_distance" : {
          "astronomical" : "0.2693715764",
          "lunar" : "104.7855377197",
          "kilometers" : "40297412",
          "miles" : "25039652"
        },
        "orbiting_body" : "Earth"
      } ],
      "orbital_data" : {
        "orbit_id" : "30",
        "orbit_determination_date" : "2017-04-06 08:35:03",
        "orbit_uncertainty" : "4",
        "minimum_orbit_intersection" : ".00322616",
        "jupiter_tisserand_invariant" : "3.235",
        "epoch_osculation" : "2458000.5",
        "eccentricity" : ".7151402314521341",
        "semi_major_axis" : "2.244932542666759",
        "inclination" : "2.395770791180597",
        "ascending_node_longitude" : "192.4316751235093",
        "orbital_period" : "1228.579799168702",
        "perihelion_distance" : ".6394909645096249",
        "perihelion_argument" : "86.6082056391557",
        "aphelion_distance" : "3.850374120823893",
        "perihelion_time" : "2458397.904357432809",
        "mean_anomaly" : "243.55207470234",
        "mean_motion" : ".2930212593789902",
        "equinox" : "J2000"
      }
    }, {
      "links" : {
        "self" : "https://api.nasa.gov/neo/rest/v1/neo/3738913?api_key=t0TVs3DtDT2H8Oy2Zy8m2eVrNsAVKAexjcZXUckd"
      },
      "neo_reference_id" : "3738913",
      "name" : "(2015 YC1)",
      "nasa_jpl_url" : "http://ssd.jpl.nasa.gov/sbdb.cgi?sstr=3738913",
      "absolute_magnitude_h" : 26.1,
      "estimated_diameter" : {
        "kilometers" : {
          "estimated_diameter_min" : 0.0160160338,
          "estimated_diameter_max" : 0.0358129403
        },
        "meters" : {
          "estimated_diameter_min" : 16.0160337979,
          "estimated_diameter_max" : 35.8129403019
        },
        "miles" : {
          "estimated_diameter_min" : 0.0099518989,
          "estimated_diameter_max" : 0.0222531225
        },
        "feet" : {
          "estimated_diameter_min" : 52.5460443254,
          "estimated_diameter_max" : 117.4965270602
        }
      },
      "is_potentially_hazardous_asteroid" : false,
      "close_approach_data" : [ {
        "close_approach_date" : "1998-08-22",
        "epoch_date_close_approach" : 903769200000,
        "relative_velocity" : {
          "kilometers_per_second" : "7.0257473868",
          "kilometers_per_hour" : "25292.6905926339",
          "miles_per_hour" : "15715.8943296285"
        },
        "miss_distance" : {
          "astronomical" : "0.3462946213",
          "lunar" : "134.7086029053",
          "kilometers" : "51804936",
          "miles" : "32190096"
        },
        "orbiting_body" : "Earth"
      } ],
      "orbital_data" : {
        "orbit_id" : "9",
        "orbit_determination_date" : "2017-06-22 17:42:02",
        "orbit_uncertainty" : "1",
        "minimum_orbit_intersection" : ".00296693",
        "jupiter_tisserand_invariant" : "5.677",
        "epoch_osculation" : "2458000.5",
        "eccentricity" : ".2559717720559598",
        "semi_major_axis" : "1.084002754546022",
        "inclination" : "6.657235645335766",
        "ascending_node_longitude" : "266.1747789569795",
        "orbital_period" : "412.234187120254",
        "perihelion_distance" : ".8065286485513355",
        "perihelion_argument" : "267.8902240039794",
        "aphelion_distance" : "1.361476860540709",
        "perihelion_time" : "2457854.918490993088",
        "mean_anomaly" : "127.1348783772751",
        "mean_motion" : ".8732900163250735",
        "equinox" : "J2000"
      }
    } ]
  }
}